1 37673U 11024A   13152.13257594  .00000356  00000-0  64081-4 0  9999
2 37673 098.0105 159.7980 0001572 102.6369 299.1873 14.72305044106165
1 37673U 11024A   13153.51161744  .00000343  00000-0  62004-4 0  9992
2 37673 098.0104 161.1573 0001567 101.0770 045.6741 14.72307207106365
1 37673U 11024A   13154.66513285  .00000426  00000-0  75134-4 0  9990
2 37673 098.0104 162.2943 0001554 100.7575 036.2953 14.72307680106538
1 37673U 11024A   13155.68288662  .00000179  00000-0  36096-4 0  9990
2 37673 098.0104 163.2974 0001546 101.2323 026.9770 14.72308967106689
1 37673U 11024A   13156.83282980  .00000183  00000-0  36732-4 0  9997
2 37673 098.0104 164.4308 0001547 102.2858 357.3056 14.72309810106853
1 37673U 11024A   13158.47320332  .00000187  00000-0  37356-4 0  9990
2 37673 098.0106 166.0475 0001536 102.7103 046.1367 14.72312130107098
1 37673U 11024A   13159.49482117  .00000166  00000-0  33992-4 0  9992
2 37673 098.0107 167.0544 0001526 101.4638 059.0222 14.72312748107240
1 37673U 11024A   13160.76528818  .00000170  00000-0  34713-4 0  9990
2 37673 098.0108 168.3066 0001511 100.0734 310.2416 14.72313534107432
1 37673U 11024A   13161.66483153  .00000171  00000-0  34815-4 0  9996
2 37673 098.0108 169.1930 0001505 103.5705 031.6467 14.72301317107560
1 37673U 11024A   13162.68286317  .00000200  00000-0  39419-4 0  9990
2 37673 098.0109 170.1965 0001492 103.8933 023.9296 14.72301861107717
1 37673U 11024A   13164.09359161  .00000147  00000-0  30981-4 0  9990
2 37673 098.0109 171.5869 0001493 105.3257 295.2538 14.72302754107920
1 37673U 11024A   13165.11291900  .00000166  00000-0  34005-4 0  9992
2 37673 098.0108 172.5917 0001476 103.9936 296.0602 14.72303155108077
1 37673U 11024A   13166.13267919  .00000162  00000-0  33392-4 0  9992
2 37673 098.0108 173.5969 0001461 102.6295 299.1923 14.72303676108228
1 37673U 11024A   13167.30391666  .00000189  00000-0  37735-4 0  9993
2 37673 098.0107 174.7514 0001467 103.1468 022.8349 14.72304668108393
1 37673U 11024A   13168.46372380  .00000208  00000-0  40654-4 0  9999
2 37673 098.0106 175.8946 0001455 102.7311 046.8660 14.72305791108561
1 37673U 11024A   13172.11298248  .00000270  00000-0  50476-4 0  9998
2 37673 098.0107 179.4915 0001444 104.3663 295.7462 14.72309250109104
1 37673U 11024A   13173.13274361  .00000227  00000-0  43731-4 0  9999
2 37673 098.0108 180.4967 0001432 103.5794 298.3265 14.72310109109258
1 37673U 11024A   13174.51452595  .00000232  00000-0  44458-4 0  9992
2 37673 098.0110 181.8586 0001434 104.1175 057.2544 14.72311947109450
1 37673U 11024A   13175.78517252  .00000305  00000-0  55975-4 0  9991
2 37673 098.0111 183.1110 0001419 102.6413 309.5076 14.72312936109643
1 37673U 11024A   13177.07339802  .00000279  00000-0  51952-4 0  9999
2 37673 098.0112 184.3808 0001415 103.9742 292.0714 14.72313656109832
